{"fetched_at":"2026-03-29T16:36:15Z","count":15609,"tles":[{"name":"ONEWEB-0012","line1":"1 44057U 19010A   26087.92439218 -.00000069  00000+0 -21491-3 0  9998","line2":"2 44057  87.9031 244.7380 0001661 113.0833 247.0473 13.16594771341000","category":"Other"}]}