{
  "norad_id": 44057,
  "name": "ONEWEB-0012",
  "history": [
    {
      "epoch": "2026-03-28T22:11:07.484352Z",
      "apogee_km": 1199.0130509463715,
      "perigee_km": 1196.4963397251822,
      "latitude_deg": -8.941349905133088e-06,
      "longitude_deg": 85.61895642990324,
      "height_km": 1201.1425345536961,
      "semi_major_axis_km": 7575.891695335777,
      "eccentricity": 0.0001661,
      "inclination_deg": 87.9031,
      "raan_deg": 244.738,
      "arg_perigee_deg": 113.0833,
      "mean_anomaly_deg": 247.0473,
      "mean_motion_rev_day": 13.16594771
    }
  ]
}